IXPE                    
1 49954U 21121A   24188.25001157  .00007933  00000+0  57868-3 0  9990
2 49954   0.2282 252.4044 0009088 201.4746 343.5061 14.98436907140768
